{"type": "FeatureCollection", "features": [ {"type": "Feature", "properties": {"norad_id": 41836, "name": "HIMAWARI-9", "group": "weather", "lat": 0.013615320376675906, "lon": -173.53278051466495, "alt_km": 35786.11255531051, "timestamp": "2025-12-10T21:43:21.729334+00:00", "meta": {"OBJECT_NAME": "HIMAWARI-9", "OBJECT_ID": "2016-064A", "EPOCH": "2025-12-10T12:49:38.623584", "MEAN_MOTION": 1.00270143, "ECCENTRICITY": 0.00012081, "INCLINATION": 0.0277, "RA_OF_ASC_NODE": 81.5503, "ARG_OF_PERICENTER": 189.7411, "MEAN_ANOMALY": 141.4004, "EPHEMERIS_TYPE": 0, "CLASSIFICATION_TYPE": "U", "NORAD_CAT_ID": 41836, "ELEMENT_SET_NO": 999, "REV_AT_EPOCH": 3331, "BSTAR": 0, "MEAN_MOTION_DOT": -2.71e-06, "MEAN_MOTION_DDOT": 0}, "tle": {"line1": "1 41836U 16064A   25344.53447481 -.00000271  00000+0  00000+0 0  9992", "line2": "2 41836   0.0277  81.5503 0001208 189.7411 141.4004  1.00270143 33316"}}, "geometry": {"type": "Point", "coordinates": [-173.53278051466495, 0.013615320376675906]}}, {"type": "Feature", "properties": {"norad_id": 41866, "name": "GOES 16", "group": "weather", "lat": -0.032603335942543776, "lon": -58.93788998890119, "alt_km": 35775.29816740266, "timestamp": "2025-12-10T21:43:21.729346+00:00", "meta": {"OBJECT_NAME": "GOES 16", "OBJECT_ID": "2016-071A", "EPOCH": "2025-12-10T13:10:22.908000", "MEAN_MOTION": 1.00271269, "ECCENTRICITY": 0.0003343, "INCLINATION": 0.0651, "RA_OF_ASC_NODE": 104.2615, "ARG_OF_PERICENTER": 157.4059, "MEAN_ANOMALY": 270.7781, "EPHEMERIS_TYPE": 0, "CLASSIFICATION_TYPE": "U", "NORAD_CAT_ID": 41866, "ELEMENT_SET_NO": 999, "REV_AT_EPOCH": 3321, "BSTAR": 0, "MEAN_MOTION_DOT": -8.7e-07, "MEAN_MOTION_DDOT": 0}, "tle": {"line1": "1 41866U 16071A   25344.54887625 -.00000087  00000+0  00000+0 0  9997", "line2": "2 41866   0.0651 104.2615 0003343 157.4059 270.7781  1.00271269 33211"}}, "geometry": {"type": "Point", "coordinates": [-58.93788998890119, -0.032603335942543776]}}, {"type": "Feature", "properties": {"norad_id": 41882, "name": "FENGYUN 4A", "group": "weather", "lat": 1.8405761177743813, "lon": 169.5282932179724, "alt_km": 35773.50191174157, "timestamp": "2025-12-10T21:43:21.729359+00:00", "meta": {"OBJECT_NAME": "FENGYUN 4A", "OBJECT_ID": "2016-077A", "EPOCH": "2025-12-09T21:00:35.659872", "MEAN_MOTION": 1.00275053, "ECCENTRICITY": 0.00048891, "INCLINATION": 1.8422, "RA_OF_ASC_NODE": 82.422, "ARG_OF_PERICENTER": 142.7758, "MEAN_ANOMALY": 292.6612, "EPHEMERIS_TYPE": 0, "CLASSIFICATION_TYPE": "U", "NORAD_CAT_ID": 41882, "ELEMENT_SET_NO": 999, "REV_AT_EPOCH": 3303, "BSTAR": 0, "MEAN_MOTION_DOT": -3.54e-06, "MEAN_MOTION_DDOT": 0}, "tle": {"line1": "1 41882U 16077A   25343.87541273 -.00000354  00000+0  00000+0 0  9999", "line2": "2 41882   1.8422  82.4220 0004889 142.7758 292.6612  1.00275053 33033"}}, "geometry": {"type": "Point", "coordinates": [169.5282932179724, 1.8405761177743813]}}, {"type": "Feature", "properties": {"norad_id": 41884, "name": "CYGFM05", "group": "weather", "lat": -13.43159961645778, "lon": -100.89803105214429, "alt_km": 419.09391098374545, "timestamp": "2025-12-10T21:43:21.729370+00:00", "meta": {"OBJECT_NAME": "CYGFM05", "OBJECT_ID": "2016-078A", "EPOCH": "2025-12-10T14:39:13.190112", "MEAN_MOTION": 15.47511355, "ECCENTRICITY": 0.00098309, "INCLINATION": 34.96, "RA_OF_ASC_NODE": 61.038, "ARG_OF_PERICENTER": 163.8231, "MEAN_ANOMALY": 196.2806, "EPHEMERIS_TYPE": 0, "CLASSIFICATION_TYPE": "U", "NORAD_CAT_ID": 41884, "ELEMENT_SET_NO": 999, "REV_AT_EPOCH": 49943, "BSTAR": 0.00053013825, "MEAN_MOTION_DOT": 0.00028182, "MEAN_MOTION_DDOT": 0}, "tle": {"line1": "1 41884U 16078A   25344.61056933  .00028182  00000+0  53014-3 0  9994", "line2": "2 41884  34.9600  61.0380 0009830 163.8231 196.2806 15.47511355499439"}}, "geometry": {"type": "Point", "coordinates": [-100.89803105214429, -13.43159961645778]}}, {"type": "Feature", "properties": {"norad_id": 41885, "name": "CYGFM04", "group": "weather", "lat": 31.25526744365805, "lon": 94.34504201662803, "alt_km": 414.12128284385835, "timestamp": "2025-12-10T21:43:21.729382+00:00", "meta": {"OBJECT_NAME": "CYGFM04", "OBJECT_ID": "2016-078B", "EPOCH": "2025-12-10T12:10:11.957376", "MEAN_MOTION": 15.50209953, "ECCENTRICITY": 0.00091826, "INCLINATION": 34.9355, "RA_OF_ASC_NODE": 36.555, "ARG_OF_PERICENTER": 190.5613, "MEAN_ANOMALY": 169.4917, "EPHEMERIS_TYPE": 0, "CLASSIFICATION_TYPE": "U", "NORAD_CAT_ID": 41885, "ELEMENT_SET_NO": 999, "REV_AT_EPOCH": 49959, "BSTAR": 0.0005223923, "MEAN_MOTION_DOT": 0.00030547, "MEAN_MOTION_DDOT": 0}, "tle": {"line1": "1 41885U 16078B   25344.50708284  .00030547  00000+0  52239-3 0  9992", "line2": "2 41885  34.9355  36.5550 0009182 190.5613 169.4917 15.50209953499598"}}, "geometry": {"type": "Point", "coordinates": [94.34504201662803, 31.25526744365805]}}, {"type": "Feature", "properties": {"norad_id": 41886, "name": "CYGFM02", "group": "weather", "lat": 32.29099099064174, "lon": 97.1223490511459, "alt_km": 410.23472372916603, "timestamp": "2025-12-10T21:43:21.729392+00:00", "meta": {"OBJECT_NAME": "CYGFM02", "OBJECT_ID": "2016-078C", "EPOCH": "2025-12-10T13:42:20.892096", "MEAN_MOTION": 15.51583416, "ECCENTRICITY": 0.00108733, "INCLINATION": 34.9444, "RA_OF_ASC_NODE": 34.4894, "ARG_OF_PERICENTER": 190.7909, "MEAN_ANOMALY": 169.2582, "EPHEMERIS_TYPE": 0, "CLASSIFICATION_TYPE": "U", "NORAD_CAT_ID": 41886, "ELEMENT_SET_NO": 999, "REV_AT_EPOCH": 49973, "BSTAR": 0.00053912782, "MEAN_MOTION_DOT": 0.00033149, "MEAN_MOTION_DDOT": 0}, "tle": {"line1": "1 41886U 16078C   25344.57107514  .00033149  00000+0  53913-3 0  9990", "line2": "2 41886  34.9444  34.4894 0010873 190.7909 169.2582 15.51583416499737"}}, "geometry": {"type": "Point", "coordinates": [97.1223490511459, 32.29099099064174]}}, {"type": "Feature", "properties": {"norad_id": 41887, "name": "CYGFM01", "group": "weather", "lat": -31.056098643388413, "lon": -58.92935429134381, "alt_km": 423.7077894087615, "timestamp": "2025-12-10T21:43:21.729403+00:00", "meta": {"OBJECT_NAME": "CYGFM01", "OBJECT_ID": "2016-078D", "EPOCH": "2025-12-10T14:28:58.046304", "MEAN_MOTION": 15.4808627, "ECCENTRICITY": 0.00093656, "INCLINATION": 34.9431, "RA_OF_ASC_NODE": 63.4492, "ARG_OF_PERICENTER": 155.4289, "MEAN_ANOMALY": 204.688, "EPHEMERIS_TYPE": 0, "CLASSIFICATION_TYPE": "U", "NORAD_CAT_ID": 41887, "ELEMENT_SET_NO": 999, "REV_AT_EPOCH": 49937, "BSTAR": 0.0005374787, "MEAN_MOTION_DOT": 0.00029154, "MEAN_MOTION_DDOT": 0}, "tle": {"line1": "1 41887U 16078D   25344.60344961  .00029154  00000+0  53748-3 0  9991", "line2": "2 41887  34.9431  63.4492 0009365 155.4289 204.6880 15.48086270499370"}}, "geometry": {"type": "Point", "coordinates": [-58.92935429134381, -31.056098643388413]}}, {"type": "Feature", "properties": {"norad_id": 41888, "name": "CYGFM08", "group": "weather", "lat": -33.626891043017665, "lon": -27.760148347571324, "alt_km": 422.4223453191853, "timestamp": "2025-12-10T21:43:21.729414+00:00", "meta": {"OBJECT_NAME": "CYGFM08", "OBJECT_ID": "2016-078E", "EPOCH": "2025-12-10T14:18:52.295040", "MEAN_MOTION": 15.49284853, "ECCENTRICITY": 0.00112683, "INCLINATION": 34.9464, "RA_OF_ASC_NODE": 46.5122, "ARG_OF_PERICENTER": 179.4899, "MEAN_ANOMALY": 180.5835, "EPHEMERIS_TYPE": 0, "CLASSIFICATION_TYPE": "U", "NORAD_CAT_ID": 41888, "ELEMENT_SET_NO": 999, "REV_AT_EPOCH": 49960, "BSTAR": 0.00053507096, "MEAN_MOTION_DOT": 0.00030303, "MEAN_MOTION_DDOT": 0}, "tle": {"line1": "1 41888U 16078E   25344.59643860  .00030303  00000+0  53507-3 0  9991", "line2": "2 41888  34.9464  46.5122 0011268 179.4899 180.5835 15.49284853499603"}}, "geometry": {"type": "Point", "coordinates": [-27.760148347571324, -33.626891043017665]}}, {"type": "Feature", "properties": {"norad_id": 41890, "name": "CYGFM07", "group": "weather", "lat": -34.91664170036057, "lon": -58.2606585983376, "alt_km": 416.7535586692902, "timestamp": "2025-12-10T21:43:21.729425+00:00", "meta": {"OBJECT_NAME": "CYGFM07", "OBJECT_ID": "2016-078G", "EPOCH": "2025-12-10T12:50:25.836864", "MEAN_MOTION": 15.49858644, "ECCENTRICITY": 0.00096823, "INCLINATION": 34.9483, "RA_OF_ASC_NODE": 35.9073, "ARG_OF_PERICENTER": 196.6766, "MEAN_ANOMALY": 163.3639, "EPHEMERIS_TYPE": 0, "CLASSIFICATION_TYPE": "U", "NORAD_CAT_ID": 41890, "ELEMENT_SET_NO": 999, "REV_AT_EPOCH": 49961, "BSTAR": 0.00053787508, "MEAN_MOTION_DOT": 0.0003107, "MEAN_MOTION_DDOT": 0}, "tle": {"line1": "1 41890U 16078G   25344.53502126  .00031070  00000+0  53788-3 0  9990", "line2": "2 41890  34.9483  35.9073 0009682 196.6766 163.3639 15.49858644499612"}}, "geometry": {"type": "Point", "coordinates": [-58.2606585983376, -34.91664170036057]}}, {"type": "Feature", "properties": {"norad_id": 41891, "name": "CYGFM03", "group": "weather", "lat": 33.78357912734956, "lon": 142.0318446845772, "alt_km": 410.3994876579418, "timestamp": "2025-12-10T21:43:21.729436+00:00", "meta": {"OBJECT_NAME": "CYGFM03", "OBJECT_ID": "2016-078H", "EPOCH": "2025-12-10T13:32:49.186752", "MEAN_MOTION": 15.49761353, "ECCENTRICITY": 0.00089683, "INCLINATION": 34.9436, "RA_OF_ASC_NODE": 37.6317, "ARG_OF_PERICENTER": 184.0085, "MEAN_ANOMALY": 176.0566, "EPHEMERIS_TYPE": 0, "CLASSIFICATION_TYPE": "U", "NORAD_CAT_ID": 41891, "ELEMENT_SET_NO": 999, "REV_AT_EPOCH": 49959, "BSTAR": 0.0005287447, "MEAN_MOTION_DOT": 0.00030426, "MEAN_MOTION_DDOT": 0}, "tle": {"line1": "1 41891U 16078H   25344.56445818  .00030426  00000+0  52874-3 0  9997", "line2": "2 41891  34.9436  37.6317 0008968 184.0085 176.0566 15.49761353499599"}}, "geometry": {"type": "Point", "coordinates": [142.0318446845772, 33.78357912734956]}}]}